SWARM A                 
1 39452U 13067B   26189.57372526  .00007315  00000+0  12370-3 0  9994
2 39452  87.3310  48.2908 0003288  95.6880 264.4756 15.51369109709566
SWARM C                 
1 39453U 13067C   26189.57362871  .00007170  00000+0  12125-3 0  9994
2 39453  87.3310  46.8718 0003284  95.7745 264.3891 15.51368023709526
BRITE-CA1 (TORONTO)     
1 40020U 14033L   26188.82868349  .00000770  00000+0  12320-3 0  9994
2 40020  97.9764 317.3791 0077912 209.9563 149.7175 14.72712458645258
OCO 2                   
1 40059U 14035A   26189.51159306  .00000283  00000+0  72885-4 0  9993
2 40059  98.2020 130.4804 0001475  81.8375 278.2990 14.57128842639153
BRITE-PL2 (HEWELIUSZ)   
1 40119U 14049B   26189.26078452  .00001727  00000+0  16450-3 0  9998
2 40119  97.9110 301.4258 0014868  44.9220 315.3201 14.94672181644591
MMS 1                   
1 40482U 15011A   26189.58336806 -.00000705  00000+0  00000+0 0  9992
2 40482  72.3784 348.5305 8300962 167.9350 320.9587  0.28352925  1346
MMS 2                   
1 40483U 15011B   26189.58336806 -.00000705  00000+0  00000+0 0  9993
2 40483  72.3825 348.5301 8303813 167.9382 320.9484  0.28351987  1345
MMS 3                   
1 40484U 15011C   26189.58336806 -.00000704  00000+0  00000+0 0  9993
2 40484  72.3823 348.5420 8302180 167.9459 320.9224  0.28351949  1314
MMS 4                   
1 40485U 15011D   26189.58336806 -.00000705  00000+0  00000+0 0  9995
2 40485  72.3781 348.5254 8302117 167.9557 320.9167  0.28352002  1375
ASTROSAT                
1 40930U 15052A   26189.48417616  .00001448  00000+0  94374-4 0  9999
2 40930   5.9982   2.0464 0008277 335.7679  24.2060 14.82545481582990
DAMPE                   
1 41173U 15078A   26189.54335288  .00001224  00000+0  43631-4 0  9990
2 41173  97.4564 195.1161 0012351   9.0776 351.0685 15.30842987587812
PISAT                   
1 41784U 16059B   26189.46395389  .00000728  00000+0  13129-3 0  9993
2 41784  97.8186 189.0030 0030098 135.4278 224.9356 14.69021756522861
HXMT (HUIYAN)           
1 42758U 17034A   26189.57708722  .00003017  00000+0  15261-3 0  9993
2 42758  43.0145  63.9217 0032756 280.4228  79.2930 15.18648122500915
FLYING LAPTOP           
1 42831U 17042G   26189.58165177  .00002552  00000+0  20217-3 0  9996
2 42831  97.4784 344.3054 0019922  53.3776 306.9277 15.01284426489666
ZHANGHENG 1-01 (CSES-1) 
1 43194U 18015C   26189.58662837  .00004653  00000+0  21163-3 0  9990
2 43194  97.6889 355.6754 0018231 188.4778 171.6151 15.21102043467898
SALSAT                  
1 46495U 20068K   26189.46701474  .00004931  00000+0  17203-3 0  9995
2 46495  97.8859 193.8315 0008516 218.2627 141.8009 15.30108644318618
IXPE                    
1 49954U 21121A   26189.58336806  .00008108  00000+0  42378-3 0  9996
2 49954   0.2296 155.5132 0006689  41.1957 293.1287 15.10450826  5784
