OBJECT_NAME,OBJECT_ID,EPOCH,MEAN_MOTION,ECCENTRICITY,INCLINATION,RA_OF_ASC_NODE,ARG_OF_PERICENTER,MEAN_ANOMALY,EPHEMERIS_TYPE,CLASSIFICATION_TYPE,NORAD_CAT_ID,ELEMENT_SET_NO,REV_AT_EPOCH,BSTAR,MEAN_MOTION_DOT,MEAN_MOTION_DDOT
SWARM A,2013-067B,2026-07-08T13:46:09.862464,15.51369109,.00032884,87.3310,48.2908,95.6880,264.4756,0,U,39452,999,70956,.12370394E-3,.7315E-4,0
SWARM C,2013-067C,2026-07-08T13:46:01.520544,15.51368023,.00032846,87.3310,46.8718,95.7745,264.3891,0,U,39453,999,70952,.12124514E-3,.717E-4,0
BRITE-CA1 (TORONTO),2014-033L,2026-07-07T19:53:18.253536,14.72712458,.00779124,97.9764,317.3791,209.9563,149.7175,0,U,40020,999,64525,.12319721E-3,.77E-5,0
OCO 2,2014-035A,2026-07-08T12:16:41.640384,14.57128842,.00014752,98.2020,130.4804,81.8375,278.2990,0,U,40059,999,63915,.72884957E-4,.283E-5,0
BRITE-PL2 (HEWELIUSZ),2014-049B,2026-07-08T06:15:31.782528,14.94672181,.00148689,97.9110,301.4258,44.9220,315.3201,0,U,40119,999,64459,.16449684E-3,.1727E-4,0
MMS 1,2015-011A,2026-07-08T14:00:03.000384,0.28352925,.83009622,72.3784,348.5305,167.9350,320.9587,0,U,40482,999,134,0,-.705E-5,0
MMS 2,2015-011B,2026-07-08T14:00:03.000384,0.28351987,.83038135,72.3825,348.5301,167.9382,320.9484,0,U,40483,999,134,0,-.705E-5,0
MMS 3,2015-011C,2026-07-08T14:00:03.000384,0.28351949,.83021802,72.3823,348.5420,167.9459,320.9224,0,U,40484,999,131,0,-.704E-5,0
MMS 4,2015-011D,2026-07-08T14:00:03.000384,0.28352002,.83021179,72.3781,348.5254,167.9557,320.9167,0,U,40485,999,137,0,-.705E-5,0
ASTROSAT,2015-052A,2026-07-08T11:37:12.820224,14.82545481,.00082773,5.9982,2.0464,335.7679,24.2060,0,U,40930,999,58299,.94374441E-4,.1448E-4,0
DAMPE,2015-078A,2026-07-08T13:02:25.688832,15.30842987,.0012351,97.4564,195.1161,9.0776,351.0685,0,U,41173,999,58781,.4363102E-4,.1224E-4,0
PISAT,2016-059B,2026-07-08T11:08:05.616096,14.69021756,.00300985,97.8186,189.0030,135.4278,224.9356,0,U,41784,999,52286,.13128876E-3,.728E-5,0
HXMT (HUIYAN),2017-034A,2026-07-08T13:51:00.335808,15.18648122,.00327565,43.0145,63.9217,280.4228,79.2930,0,U,42758,999,50091,.15260955E-3,.3017E-4,0
FLYING LAPTOP,2017-042G,2026-07-08T13:57:34.712928,15.01284426,.00199224,97.4784,344.3054,53.3776,306.9277,0,U,42831,999,48966,.20217195E-3,.2552E-4,0
ZHANGHENG 1-01 (CSES-1),2018-015C,2026-07-08T14:04:44.691168,15.21102043,.00182316,97.6889,355.6754,188.4778,171.6151,0,U,43194,999,46789,.21163015E-3,.4653E-4,0
SALSAT,2020-068K,2026-07-08T11:12:30.073536,15.30108644,.00085164,97.8859,193.8315,218.2627,141.8009,0,U,46495,999,31861,.17202586E-3,.4931E-4,0
IXPE,2021-121A,2026-07-08T14:00:03.000384,15.10450826,.00066892,0.2296,155.5132,41.1957,293.1287,0,U,49954,999,578,.42377731E-3,.8108E-4,0
